{"fetched_at":"2026-03-29T12:54:09Z","count":15711,"tles":[{"name":"STARLINK-30360","line1":"1 57776U 23134F   26087.71802181  .00000478  00000+0  26915-4 0  9991","line2":"2 57776  43.0078  87.3098 0001596 275.3587  84.7083 15.27578266142410","category":"Starlink"}]}